[{"OBJECT_NAME":"FENGYUN 1C DEB","OBJECT_ID":"1999-025ELC","EPOCH":"2026-03-03T07:24:09.370656","MEAN_MOTION":13.86110343,"ECCENTRICITY":0.03376894,"INCLINATION":98.1986,"RA_OF_ASC_NODE":92.6159,"ARG_OF_PERICENTER":136.8862,"MEAN_ANOMALY":287.1542,"EPHEMERIS_TYPE":0,"CLASSIFICATION_TYPE":"U","NORAD_CAT_ID":37687,"ELEMENT_SET_NO":999,"REV_AT_EPOCH":84370,"BSTAR":0.003258083,"MEAN_MOTION_DOT":5.848e-5,"MEAN_MOTION_DDOT":0},{"OBJECT_NAME":"FENGYUN 1C DEB","OBJECT_ID":"1999-025ELE","EPOCH":"2026-03-04T13:58:38.172864","MEAN_MOTION":14.50236559,"ECCENTRICITY":0.0016932,"INCLINATION":98.9144,"RA_OF_ASC_NODE":114.1697,"ARG_OF_PERICENTER":357.7287,"MEAN_ANOMALY":2.3825,"EPHEMERIS_TYPE":0,"CLASSIFICATION_TYPE":"U","NORAD_CAT_ID":37689,"ELEMENT_SET_NO":999,"REV_AT_EPOCH":58998,"BSTAR":0.0029468,"MEAN_MOTION_DOT":0.00011458,"MEAN_MOTION_DDOT":0},{"OBJECT_NAME":"FENGYUN 1C DEB","OBJECT_ID":"1999-025ELG","EPOCH":"2026-02-16T12:48:31.445856","MEAN_MOTION":14.60850134,"ECCENTRICITY":0.0269289,"INCLINATION":98.3705,"RA_OF_ASC_NODE":316.8342,"ARG_OF_PERICENTER":306.6389,"MEAN_ANOMALY":51.0321,"EPHEMERIS_TYPE":0,"CLASSIFICATION_TYPE":"U","NORAD_CAT_ID":37691,"ELEMENT_SET_NO":999,"REV_AT_EPOCH":86593,"BSTAR":0.0030884,"MEAN_MOTION_DOT":0.00025342,"MEAN_MOTION_DDOT":0},{"OBJECT_NAME":"FENGYUN 1C DEB","OBJECT_ID":"1999-025ELJ","EPOCH":"2026-03-02T22:50:46.951584","MEAN_MOTION":14.08693524,"ECCENTRICITY":0.0070872,"INCLINATION":98.6979,"RA_OF_ASC_NODE":63.8845,"ARG_OF_PERICENTER":207.2908,"MEAN_ANOMALY":184.5695,"EPHEMERIS_TYPE":0,"CLASSIFICATION_TYPE":"U","NORAD_CAT_ID":37693,"ELEMENT_SET_NO":999,"REV_AT_EPOCH":63278,"BSTAR":0.00062382,"MEAN_MOTION_DOT":1.057e-5,"MEAN_MOTION_DDOT":0},{"OBJECT_NAME":"FENGYUN 1C DEB","OBJECT_ID":"1999-025ELK","EPOCH":"2026-02-03T00:20:25.081152","MEAN_MOTION":14.17105548,"ECCENTRICITY":0.01446618,"INCLINATION":98.1932,"RA_OF_ASC_NODE":102.5616,"ARG_OF_PERICENTER":300.0346,"MEAN_ANOMALY":180.9642,"EPHEMERIS_TYPE":0,"CLASSIFICATION_TYPE":"U","NORAD_CAT_ID":37694,"ELEMENT_SET_NO":999,"REV_AT_EPOCH":52444,"BSTAR":0.0017386785,"MEAN_MOTION_DOT":3.84e-5,"MEAN_MOTION_DDOT":0},{"OBJECT_NAME":"FENGYUN 1C DEB","OBJECT_ID":"1999-025ELL","EPOCH":"2026-02-03T20:28:22.227456","MEAN_MOTION":13.65192869,"ECCENTRICITY":0.04647199,"INCLINATION":98.2031,"RA_OF_ASC_NODE":75.2056,"ARG_OF_PERICENTER":118.9021,"MEAN_ANOMALY":51.9274,"EPHEMERIS_TYPE":0,"CLASSIFICATION_TYPE":"U","NORAD_CAT_ID":37695,"ELEMENT_SET_NO":999,"REV_AT_EPOCH":89976,"BSTAR":0.00075682264,"MEAN_MOTION_DOT":1.259e-5,"MEAN_MOTION_DDOT":0},{"OBJECT_NAME":"FENGYUN 1C DEB","OBJECT_ID":"1999-025ELY","EPOCH":"2026-03-02T06:52:04.153152","MEAN_MOTION":14.57001175,"ECCENTRICITY":0.01420307,"INCLINATION":100.222,"RA_OF_ASC_NODE":88.1489,"ARG_OF_PERICENTER":153.783,"MEAN_ANOMALY":267.165,"EPHEMERIS_TYPE":0,"CLASSIFICATION_TYPE":"U","NORAD_CAT_ID":37707,"ELEMENT_SET_NO":999,"REV_AT_EPOCH":86724,"BSTAR":0.00056854383,"MEAN_MOTION_DOT":2.86e-5,"MEAN_MOTION_DDOT":0},{"OBJECT_NAME":"FENGYUN 1C DEB","OBJECT_ID":"1999-025EMD","EPOCH":"2026-03-02T04:50:26.060928","MEAN_MOTION":14.36732831,"ECCENTRICITY":0.0080113,"INCLINATION":98.8263,"RA_OF_ASC_NODE":207.156,"ARG_OF_PERICENTER":118.6114,"MEAN_ANOMALY":55.0095,"EPHEMERIS_TYPE":0,"CLASSIFICATION_TYPE":"U","NORAD_CAT_ID":37712,"ELEMENT_SET_NO":999,"REV_AT_EPOCH":65101,"BSTAR":0.00055427477,"MEAN_MOTION_DOT":1.649e-5,"MEAN_MOTION_DDOT":0},{"OBJECT_NAME":"FENGYUN 1C DEB","OBJECT_ID":"1999-025EMF","EPOCH":"2026-03-02T06:18:36.936000","MEAN_MOTION":14.33170876,"ECCENTRICITY":0.0049711,"INCLINATION":98.8918,"RA_OF_ASC_NODE":180.0227,"ARG_OF_PERICENTER":207.5721,"MEAN_ANOMALY":152.2825,"EPHEMERIS_TYPE":0,"CLASSIFICATION_TYPE":"U","NORAD_CAT_ID":37714,"ELEMENT_SET_NO":999,"REV_AT_EPOCH":58648,"BSTAR":0.002374877,"MEAN_MOTION_DOT":6.571e-5,"MEAN_MOTION_DDOT":0},{"OBJECT_NAME":"FENGYUN 1C DEB","OBJECT_ID":"1999-025EMG","EPOCH":"2026-03-02T06:45:26.055648","MEAN_MOTION":13.95560847,"ECCENTRICITY":0.01128132,"INCLINATION":98.9572,"RA_OF_ASC_NODE":71.8049,"ARG_OF_PERICENTER":253.4868,"MEAN_ANOMALY":163.8985,"EPHEMERIS_TYPE":0,"CLASSIFICATION_TYPE":"U","NORAD_CAT_ID":37715,"ELEMENT_SET_NO":999,"REV_AT_EPOCH":58913,"BSTAR":0.00041398537,"MEAN_MOTION_DOT":5.5e-6,"MEAN_MOTION_DDOT":0},{"OBJECT_NAME":"FENGYUN 1C DEB","OBJECT_ID":"1999-025EMJ","EPOCH":"2026-03-03T03:39:16.179840","MEAN_MOTION":15.00626108,"ECCENTRICITY":0.00473467,"INCLINATION":98.7471,"RA_OF_ASC_NODE":32.2792,"ARG_OF_PERICENTER":201.9381,"MEAN_ANOMALY":221.5838,"EPHEMERIS_TYPE":0,"CLASSIFICATION_TYPE":"U","NORAD_CAT_ID":37717,"ELEMENT_SET_NO":999,"REV_AT_EPOCH":90601,"BSTAR":0.0029579179,"MEAN_MOTION_DOT":0.00038398,"MEAN_MOTION_DDOT":0},{"OBJECT_NAME":"FENGYUN 1C DEB","OBJECT_ID":"1999-025EML","EPOCH":"2026-02-05T08:43:48.201312","MEAN_MOTION":14.56910924,"ECCENTRICITY":0.00445972,"INCLINATION":99.4955,"RA_OF_ASC_NODE":74.8989,"ARG_OF_PERICENTER":97.7515,"MEAN_ANOMALY":281.0424,"EPHEMERIS_TYPE":0,"CLASSIFICATION_TYPE":"U","NORAD_CAT_ID":37719,"ELEMENT_SET_NO":999,"REV_AT_EPOCH":1034,"BSTAR":0.0019465401,"MEAN_MOTION_DOT":8.805e-5,"MEAN_MOTION_DDOT":0},{"OBJECT_NAME":"FENGYUN 1C DEB","OBJECT_ID":"1999-025EMZ","EPOCH":"2026-03-04T02:46:11.030880","MEAN_MOTION":14.03970808,"ECCENTRICITY":0.02079538,"INCLINATION":102.2937,"RA_OF_ASC_NODE":172.8961,"ARG_OF_PERICENTER":34.1524,"MEAN_ANOMALY":327.281,"EPHEMERIS_TYPE":0,"CLASSIFICATION_TYPE":"U","NORAD_CAT_ID":37900,"ELEMENT_SET_NO":999,"REV_AT_EPOCH":60956,"BSTAR":0.0019865079,"MEAN_MOTION_DOT":3.736e-5,"MEAN_MOTION_DDOT":0},{"OBJECT_NAME":"FENGYUN 1C DEB","OBJECT_ID":"1999-025ENB","EPOCH":"2026-03-04T01:04:54.669216","MEAN_MOTION":13.52979666,"ECCENTRICITY":0.03185544,"INCLINATION":98.6918,"RA_OF_ASC_NODE":278.4528,"ARG_OF_PERICENTER":96.8923,"MEAN_ANOMALY":266.8561,"EPHEMERIS_TYPE":0,"CLASSIFICATION_TYPE":"U","NORAD_CAT_ID":37902,"ELEMENT_SET_NO":999,"REV_AT_EPOCH":64076,"BSTAR":0.0024106406,"MEAN_MOTION_DOT":2.182e-5,"MEAN_MOTION_DDOT":0},{"OBJECT_NAME":"FENGYUN 1C DEB","OBJECT_ID":"1999-025ENF","EPOCH":"2026-03-04T08:44:42.131328","MEAN_MOTION":13.8092227,"ECCENTRICITY":0.01636892,"INCLINATION":99.5904,"RA_OF_ASC_NODE":110.5105,"ARG_OF_PERICENTER":173.516,"MEAN_ANOMALY":251.8551,"EPHEMERIS_TYPE":0,"CLASSIFICATION_TYPE":"U","NORAD_CAT_ID":37906,"ELEMENT_SET_NO":999,"REV_AT_EPOCH":60582,"BSTAR":0.00075830489,"MEAN_MOTION_DOT":8.39e-6,"MEAN_MOTION_DDOT":0},{"OBJECT_NAME":"FENGYUN 1C DEB","OBJECT_ID":"1999-025ENG","EPOCH":"2026-03-04T13:20:47.007168","MEAN_MOTION":14.24552997,"ECCENTRICITY":0.0057139,"INCLINATION":99.0804,"RA_OF_ASC_NODE":184.2158,"ARG_OF_PERICENTER":308.7621,"MEAN_ANOMALY":50.8459,"EPHEMERIS_TYPE":0,"CLASSIFICATION_TYPE":"U","NORAD_CAT_ID":37907,"ELEMENT_SET_NO":999,"REV_AT_EPOCH":84437,"BSTAR":0.0024851,"MEAN_MOTION_DOT":5.822e-5,"MEAN_MOTION_DDOT":0}]
